EARTHCARE               
1 59908U 24101A   24211.89494018  .00017717  00000+0  26071-3 0  9993
2 59908  96.9832 338.6362 0002380 316.8104  43.2965 15.55494744  9621
